KUIPER-00112            
1 65150U 25171U   25355.37912565  .00002897  00000+0  40835-3 0  9999
2 65150  51.9008 141.8786 0009126 261.1375  98.8555 14.79982397 21327
KUIPER-00114            
1 65151U 25171V   25355.52636816  .00002418  00000+0  34605-3 0  9996
2 65151  51.8983 161.2420 0006212 196.2483 163.8281 14.79950224 21065
KUIPER-00115            
1 65152U 25171W   25355.46701970  .00002762  00000+0  39116-3 0  9998
2 65152  51.8980 153.9861 0009551 223.1547 136.8667 14.79931515 21161
KUIPER-00116            
1 65153U 25171X   25355.49539516  .00003190  00000+0  44680-3 0  9995
2 65153  51.8988 158.9032 0009618 187.2901 172.7923 14.79971171 21091
KUIPER-00118            
1 65154U 25171Y   25355.49273208  .00002564  00000+0  36535-3 0  9993
2 65154  51.8976 161.3713 0001474 164.8013 195.2994 14.79915488 21064
KUIPER-00119            
1 65155U 25171Z   25355.16852354  .00002527  00000+0  36052-3 0  9996
2 65155  51.8973 150.3888 0007988 216.5387 143.5031 14.79918102 21185
KUIPER-00120            
1 65762U 25217A   25354.81186822 -.00107307  00000+0 -13756-1 0  9990
2 65762  51.8973  40.6327 0010834  36.0676 324.1016 14.81420566 13072
KUIPER-00132            
1 65763U 25217B   25355.28246227  .00044467  00000+0  11871-2 0  9991
2 65763  51.8640  23.4208 0007465  45.9576 314.2024 15.37646961 13356
