<?xml version="1.0" encoding="UTF-8"?>
<ndm xmlns:xsi="http://www.w3.org/2001/XMLSchema-instance" xsi:noNamespaceSchemaLocation="https://sanaregistry.org/r/ndmxml_unqualified/ndmxml-2.0.0-master-2.0.xsd">
<omm id="CCSDS_OMM_VERS" version="2.0">
<header><CREATION_DATE/><ORIGINATOR/></header><body><segment><metadata><OBJECT_NAME>KUIPER-00112</OBJECT_NAME><OBJECT_ID>2025-171U</OBJECT_ID><CENTER_NAME>EARTH</CENTER_NAME><REF_FRAME>TEME</REF_FRAME><TIME_SYSTEM>UTC</TIME_SYSTEM><MEAN_ELEMENT_THEORY>SGP4</MEAN_ELEMENT_THEORY></metadata><data><meanElements><EPOCH>2025-12-21T09:05:56.456160</EPOCH><MEAN_MOTION>14.79982397</MEAN_MOTION><ECCENTRICITY>.0009126</ECCENTRICITY><INCLINATION>51.9008</INCLINATION><RA_OF_ASC_NODE>141.8786</RA_OF_ASC_NODE><ARG_OF_PERICENTER>261.1375</ARG_OF_PERICENTER><MEAN_ANOMALY>98.8555</MEAN_ANOMALY></meanElements><tleParameters><EPHEMERIS_TYPE>0</EPHEMERIS_TYPE><CLASSIFICATION_TYPE>U</CLASSIFICATION_TYPE><NORAD_CAT_ID>65150</NORAD_CAT_ID><ELEMENT_SET_NO>999</ELEMENT_SET_NO><REV_AT_EPOCH>2132</REV_AT_EPOCH><BSTAR>.40835E-3</BSTAR><MEAN_MOTION_DOT>.2897E-4</MEAN_MOTION_DOT><MEAN_MOTION_DDOT>0</MEAN_MOTION_DDOT></tleParameters></data></segment></body></omm>
<omm id="CCSDS_OMM_VERS" version="2.0">
<header><CREATION_DATE/><ORIGINATOR/></header><body><segment><metadata><OBJECT_NAME>KUIPER-00114</OBJECT_NAME><OBJECT_ID>2025-171V</OBJECT_ID><CENTER_NAME>EARTH</CENTER_NAME><REF_FRAME>TEME</REF_FRAME><TIME_SYSTEM>UTC</TIME_SYSTEM><MEAN_ELEMENT_THEORY>SGP4</MEAN_ELEMENT_THEORY></metadata><data><meanElements><EPOCH>2025-12-21T12:37:58.209024</EPOCH><MEAN_MOTION>14.79950224</MEAN_MOTION><ECCENTRICITY>.0006212</ECCENTRICITY><INCLINATION>51.8983</INCLINATION><RA_OF_ASC_NODE>161.2420</RA_OF_ASC_NODE><ARG_OF_PERICENTER>196.2483</ARG_OF_PERICENTER><MEAN_ANOMALY>163.8281</MEAN_ANOMALY></meanElements><tleParameters><EPHEMERIS_TYPE>0</EPHEMERIS_TYPE><CLASSIFICATION_TYPE>U</CLASSIFICATION_TYPE><NORAD_CAT_ID>65151</NORAD_CAT_ID><ELEMENT_SET_NO>999</ELEMENT_SET_NO><REV_AT_EPOCH>2106</REV_AT_EPOCH><BSTAR>.34605E-3</BSTAR><MEAN_MOTION_DOT>.2418E-4</MEAN_MOTION_DOT><MEAN_MOTION_DDOT>0</MEAN_MOTION_DDOT></tleParameters></data></segment></body></omm>
<omm id="CCSDS_OMM_VERS" version="2.0">
<header><CREATION_DATE/><ORIGINATOR/></header><body><segment><metadata><OBJECT_NAME>KUIPER-00115</OBJECT_NAME><OBJECT_ID>2025-171W</OBJECT_ID><CENTER_NAME>EARTH</CENTER_NAME><REF_FRAME>TEME</REF_FRAME><TIME_SYSTEM>UTC</TIME_SYSTEM><MEAN_ELEMENT_THEORY>SGP4</MEAN_ELEMENT_THEORY></metadata><data><meanElements><EPOCH>2025-12-21T11:12:30.502080</EPOCH><MEAN_MOTION>14.79931515</MEAN_MOTION><ECCENTRICITY>.0009551</ECCENTRICITY><INCLINATION>51.8980</INCLINATION><RA_OF_ASC_NODE>153.9861</RA_OF_ASC_NODE><ARG_OF_PERICENTER>223.1547</ARG_OF_PERICENTER><MEAN_ANOMALY>136.8667</MEAN_ANOMALY></meanElements><tleParameters><EPHEMERIS_TYPE>0</EPHEMERIS_TYPE><CLASSIFICATION_TYPE>U</CLASSIFICATION_TYPE><NORAD_CAT_ID>65152</NORAD_CAT_ID><ELEMENT_SET_NO>999</ELEMENT_SET_NO><REV_AT_EPOCH>2116</REV_AT_EPOCH><BSTAR>.39116E-3</BSTAR><MEAN_MOTION_DOT>.2762E-4</MEAN_MOTION_DOT><MEAN_MOTION_DDOT>0</MEAN_MOTION_DDOT></tleParameters></data></segment></body></omm>
<omm id="CCSDS_OMM_VERS" version="2.0">
<header><CREATION_DATE/><ORIGINATOR/></header><body><segment><metadata><OBJECT_NAME>KUIPER-00116</OBJECT_NAME><OBJECT_ID>2025-171X</OBJECT_ID><CENTER_NAME>EARTH</CENTER_NAME><REF_FRAME>TEME</REF_FRAME><TIME_SYSTEM>UTC</TIME_SYSTEM><MEAN_ELEMENT_THEORY>SGP4</MEAN_ELEMENT_THEORY></metadata><data><meanElements><EPOCH>2025-12-21T11:53:22.141824</EPOCH><MEAN_MOTION>14.79971171</MEAN_MOTION><ECCENTRICITY>.0009618</ECCENTRICITY><INCLINATION>51.8988</INCLINATION><RA_OF_ASC_NODE>158.9032</RA_OF_ASC_NODE><ARG_OF_PERICENTER>187.2901</ARG_OF_PERICENTER><MEAN_ANOMALY>172.7923</MEAN_ANOMALY></meanElements><tleParameters><EPHEMERIS_TYPE>0</EPHEMERIS_TYPE><CLASSIFICATION_TYPE>U</CLASSIFICATION_TYPE><NORAD_CAT_ID>65153</NORAD_CAT_ID><ELEMENT_SET_NO>999</ELEMENT_SET_NO><REV_AT_EPOCH>2109</REV_AT_EPOCH><BSTAR>.4468E-3</BSTAR><MEAN_MOTION_DOT>.319E-4</MEAN_MOTION_DOT><MEAN_MOTION_DDOT>0</MEAN_MOTION_DDOT></tleParameters></data></segment></body></omm>
<omm id="CCSDS_OMM_VERS" version="2.0">
<header><CREATION_DATE/><ORIGINATOR/></header><body><segment><metadata><OBJECT_NAME>KUIPER-00118</OBJECT_NAME><OBJECT_ID>2025-171Y</OBJECT_ID><CENTER_NAME>EARTH</CENTER_NAME><REF_FRAME>TEME</REF_FRAME><TIME_SYSTEM>UTC</TIME_SYSTEM><MEAN_ELEMENT_THEORY>SGP4</MEAN_ELEMENT_THEORY></metadata><data><meanElements><EPOCH>2025-12-21T11:49:32.051712</EPOCH><MEAN_MOTION>14.79915488</MEAN_MOTION><ECCENTRICITY>.0001474</ECCENTRICITY><INCLINATION>51.8976</INCLINATION><RA_OF_ASC_NODE>161.3713</RA_OF_ASC_NODE><ARG_OF_PERICENTER>164.8013</ARG_OF_PERICENTER><MEAN_ANOMALY>195.2994</MEAN_ANOMALY></meanElements><tleParameters><EPHEMERIS_TYPE>0</EPHEMERIS_TYPE><CLASSIFICATION_TYPE>U</CLASSIFICATION_TYPE><NORAD_CAT_ID>65154</NORAD_CAT_ID><ELEMENT_SET_NO>999</ELEMENT_SET_NO><REV_AT_EPOCH>2106</REV_AT_EPOCH><BSTAR>.36535E-3</BSTAR><MEAN_MOTION_DOT>.2564E-4</MEAN_MOTION_DOT><MEAN_MOTION_DDOT>0</MEAN_MOTION_DDOT></tleParameters></data></segment></body></omm>
<omm id="CCSDS_OMM_VERS" version="2.0">
<header><CREATION_DATE/><ORIGINATOR/></header><body><segment><metadata><OBJECT_NAME>KUIPER-00119</OBJECT_NAME><OBJECT_ID>2025-171Z</OBJECT_ID><CENTER_NAME>EARTH</CENTER_NAME><REF_FRAME>TEME</REF_FRAME><TIME_SYSTEM>UTC</TIME_SYSTEM><MEAN_ELEMENT_THEORY>SGP4</MEAN_ELEMENT_THEORY></metadata><data><meanElements><EPOCH>2025-12-21T04:02:40.433856</EPOCH><MEAN_MOTION>14.79918102</MEAN_MOTION><ECCENTRICITY>.00079882</ECCENTRICITY><INCLINATION>51.8973</INCLINATION><RA_OF_ASC_NODE>150.3888</RA_OF_ASC_NODE><ARG_OF_PERICENTER>216.5387</ARG_OF_PERICENTER><MEAN_ANOMALY>143.5031</MEAN_ANOMALY></meanElements><tleParameters><EPHEMERIS_TYPE>0</EPHEMERIS_TYPE><CLASSIFICATION_TYPE>U</CLASSIFICATION_TYPE><NORAD_CAT_ID>65155</NORAD_CAT_ID><ELEMENT_SET_NO>999</ELEMENT_SET_NO><REV_AT_EPOCH>2118</REV_AT_EPOCH><BSTAR>.36051915E-3</BSTAR><MEAN_MOTION_DOT>.2527E-4</MEAN_MOTION_DOT><MEAN_MOTION_DDOT>0</MEAN_MOTION_DDOT></tleParameters></data></segment></body></omm>
<omm id="CCSDS_OMM_VERS" version="2.0">
<header><CREATION_DATE/><ORIGINATOR/></header><body><segment><metadata><OBJECT_NAME>KUIPER-00120</OBJECT_NAME><OBJECT_ID>2025-217A</OBJECT_ID><CENTER_NAME>EARTH</CENTER_NAME><REF_FRAME>TEME</REF_FRAME><TIME_SYSTEM>UTC</TIME_SYSTEM><MEAN_ELEMENT_THEORY>SGP4</MEAN_ELEMENT_THEORY></metadata><data><meanElements><EPOCH>2025-12-20T19:29:05.414208</EPOCH><MEAN_MOTION>14.81420566</MEAN_MOTION><ECCENTRICITY>.00108344</ECCENTRICITY><INCLINATION>51.8973</INCLINATION><RA_OF_ASC_NODE>40.6327</RA_OF_ASC_NODE><ARG_OF_PERICENTER>36.0676</ARG_OF_PERICENTER><MEAN_ANOMALY>324.1016</MEAN_ANOMALY></meanElements><tleParameters><EPHEMERIS_TYPE>0</EPHEMERIS_TYPE><CLASSIFICATION_TYPE>U</CLASSIFICATION_TYPE><NORAD_CAT_ID>65762</NORAD_CAT_ID><ELEMENT_SET_NO>999</ELEMENT_SET_NO><REV_AT_EPOCH>1307</REV_AT_EPOCH><BSTAR>-.13756123E-1</BSTAR><MEAN_MOTION_DOT>-.107307E-2</MEAN_MOTION_DOT><MEAN_MOTION_DDOT>0</MEAN_MOTION_DDOT></tleParameters></data></segment></body></omm>
<omm id="CCSDS_OMM_VERS" version="2.0">
<header><CREATION_DATE/><ORIGINATOR/></header><body><segment><metadata><OBJECT_NAME>KUIPER-00132</OBJECT_NAME><OBJECT_ID>2025-217B</OBJECT_ID><CENTER_NAME>EARTH</CENTER_NAME><REF_FRAME>TEME</REF_FRAME><TIME_SYSTEM>UTC</TIME_SYSTEM><MEAN_ELEMENT_THEORY>SGP4</MEAN_ELEMENT_THEORY></metadata><data><meanElements><EPOCH>2025-12-21T06:46:44.740128</EPOCH><MEAN_MOTION>15.37646961</MEAN_MOTION><ECCENTRICITY>.0007465</ECCENTRICITY><INCLINATION>51.8640</INCLINATION><RA_OF_ASC_NODE>23.4208</RA_OF_ASC_NODE><ARG_OF_PERICENTER>45.9576</ARG_OF_PERICENTER><MEAN_ANOMALY>314.2024</MEAN_ANOMALY></meanElements><tleParameters><EPHEMERIS_TYPE>0</EPHEMERIS_TYPE><CLASSIFICATION_TYPE>U</CLASSIFICATION_TYPE><NORAD_CAT_ID>65763</NORAD_CAT_ID><ELEMENT_SET_NO>999</ELEMENT_SET_NO><REV_AT_EPOCH>1335</REV_AT_EPOCH><BSTAR>.11871E-2</BSTAR><MEAN_MOTION_DOT>.44467E-3</MEAN_MOTION_DOT><MEAN_MOTION_DDOT>0</MEAN_MOTION_DDOT></tleParameters></data></segment></body></omm>

</ndm>
